[{"OBJECT_NAME":"STARLINK-4143","OBJECT_ID":"2022-076AV","EPOCH":"2026-03-09T10:24:25.403040","MEAN_MOTION":15.08837112,"ECCENTRICITY":0.00014305,"INCLINATION":53.2169,"RA_OF_ASC_NODE":75.2714,"ARG_OF_PERICENTER":89.6903,"MEAN_ANOMALY":270.4253,"EPHEMERIS_TYPE":0,"CLASSIFICATION_TYPE":"U","NORAD_CAT_ID":53029,"ELEMENT_SET_NO":999,"REV_AT_EPOCH":20308,"BSTAR":-2.931254e-6,"MEAN_MOTION_DOT":-3.35e-6,"MEAN_MOTION_DDOT":0},{"OBJECT_NAME":"OBJECT G","OBJECT_ID":"2026-027G","EPOCH":"2026-03-09T21:53:37.288032","MEAN_MOTION":15.12145257,"ECCENTRICITY":0.00120269,"INCLINATION":97.4906,"RA_OF_ASC_NODE":197.8999,"ARG_OF_PERICENTER":227.3105,"MEAN_ANOMALY":132.7114,"EPHEMERIS_TYPE":0,"CLASSIFICATION_TYPE":"U","NORAD_CAT_ID":67752,"ELEMENT_SET_NO":999,"REV_AT_EPOCH":389,"BSTAR":0.00053594907,"MEAN_MOTION_DOT":9.195e-5,"MEAN_MOTION_DDOT":0}]
